NORAD_CAT_ID,OBJECT_NAME,OBJECT_TYPE,EPOCH,MEAN_MOTION,ECCENTRICITY,INCLINATION,RA_OF_ASC_NODE,ARG_OF_PERICENTER,MEAN_ANOMALY,BSTAR,MEAN_MOTION_DOT,MEAN_MOTION_DDOT,TLE_LINE0,TLE_LINE1,TLE_LINE2,SEMIMAJOR_AXIS,PERIOD,APOGEE,PERIGEE,DECAYED
55311.0,STARLINK-5312,PAYLOAD,2024-05-07 12:17:28,14.9832758,0.0002838,70.0002,256.839,272.2176,87.8658,-0.0001439,-1.809e-05,0.0,0 STARLINK-5312,1 55311U 23010AU  24128.51213072 -.00001809  00000-0 -14390-3 0  9999,2 55311  70.0002 256.8390 0002838 272.2176  87.8658 14.98327580 72915,6950.2,96.107,574.038,570.093,0.0
55311.0,STARLINK-5312,PAYLOAD,2024-05-07 13:53:36,14.98326798,0.0002874,70.0002,256.6707,271.8566,88.2263,-0.00013413,-1.693e-05,0.0,0 STARLINK-5312,1 55311U 23010AU  24128.57889090 -.00001693  00000-0 -13413-3 0  9990,2 55311  70.0002 256.6707 0002874 271.8566  88.2263 14.98326798 74114,6950.203,96.107,574.065,570.07,0.0
55311.0,STARLINK-5312,PAYLOAD,2024-05-07 18:42:00,14.98330414,0.0002605,70.0008,256.1669,265.0127,95.0734,-0.00012748,-1.614e-05,0.0,0 STARLINK-5312,1 55311U 23010AU  24128.77916823 -.00001614  00000-0 -12748-3 0  9990,2 55311  70.0008 256.1669 0002605 265.0127  95.0734 14.98330414 74144,6950.192,96.107,573.867,570.246,0.0
55311.0,STARLINK-5312,PAYLOAD,2024-05-08 12:19:28,14.98333657,0.0002649,70.0007,254.3159,271.078,89.0076,-0.00014187,-1.785e-05,0.0,0 STARLINK-5312,1 55311U 23010AU  24129.51352610 -.00001785  00000-0 -14187-3 0  9999,2 55311  70.0007 254.3159 0002649 271.0780  89.0076 14.98333657 73061,6950.182,96.107,573.888,570.205,0.0
55311.0,STARLINK-5312,PAYLOAD,2024-05-08 18:44:00,14.98334087,0.0002854,70.0001,253.6416,270.503,89.5802,-9.4982e-07,-1.04e-06,0.0,0 STARLINK-5312,1 55311U 23010AU  24129.78056184 -.00000104  00000-0 -94982-6 0  9993,2 55311  70.0001 253.6416 0002854 270.5030  89.5802 14.98334087 74299,6950.18,96.107,574.029,570.062,0.0
55311.0,STARLINK-5312,PAYLOAD,2024-05-09 12:21:29,14.9832952,0.0002837,70.0001,251.7901,268.7436,91.3398,7.6396e-05,8.19e-06,0.0,0 STARLINK-5312,1 55311U 23010AU  24130.51492246  .00000819  00000-0  76396-4 0  9997,2 55311  70.0001 251.7901 0002837 268.7436  91.3398 14.98329520 73215,6950.194,96.107,574.031,570.088,0.0
55311.0,STARLINK-5312,PAYLOAD,2024-05-09 13:57:37,14.98327618,0.0002856,70.0002,251.6215,268.1813,91.9019,9.6478e-05,1.058e-05,0.0,0 STARLINK-5312,1 55311U 23010AU  24130.58168314  .00001058  00000-0  96478-4 0  9999,2 55311  70.0002 251.6215 0002856 268.1813  91.9019 14.98327618 74412,6950.2,96.107,574.05,570.08,0.0
55311.0,STARLINK-5312,PAYLOAD,2024-05-09 17:09:53,14.98330673,0.0002756,70.0003,251.2849,266.6989,93.3854,0.00012607,1.412e-05,0.0,0 STARLINK-5312,1 55311U 23010AU  24130.71520021  .00001412  00000-0  12607-3 0  9996,2 55311  70.0003 251.2849 0002756 266.6989  93.3854 14.98330673 74438,6950.191,96.107,573.971,570.14,0.0
55311.0,STARLINK-5312,PAYLOAD,2024-05-10 13:59:38,14.98328888,0.0002836,70.0003,249.0964,264.0014,96.0822,1.1454e-05,4.4e-07,0.0,0 STARLINK-5312,1 55311U 23010AU  24131.58308426  .00000044  00000-0  11454-4 0  9995,2 55311  70.0003 249.0964 0002836 264.0014  96.0822 14.98328888 73373,6950.196,96.107,574.032,570.09,0.0
55311.0,STARLINK-5312,PAYLOAD,2024-05-10 17:11:54,14.9833123,0.0002867,70.0001,248.7598,264.6945,95.3887,5.7015e-05,5.87e-06,0.0,0 STARLINK-5312,1 55311U 23010AU  24131.71660141  .00000587  00000-0  57015-4 0  9990,2 55311  70.0001 248.7598 0002867 264.6945  95.3887 14.98331230 74585,6950.189,96.107,574.047,570.061,0.0
55311.0,STARLINK-5312,PAYLOAD,2024-05-11 14:01:33,14.98397777,0.000352,69.9994,246.5711,276.9545,83.1213,0.00067812,8.022e-05,0.0,0 STARLINK-5312,1 55311U 23010AU  24132.58441277  .00008022  00000-0  67812-3 0  9990,2 55311  69.9994 246.5711 0003520 276.9545  83.1213 14.98397777 73524,6949.983,96.103,574.295,569.402,0.0
55311.0,STARLINK-5312,PAYLOAD,2024-05-11 17:13:53,14.98343646,0.0002665,70.0001,246.2346,285.4109,74.6755,8.0667e-06,3e-08,0.0,0 STARLINK-5312,1 55311U 23010AU  24132.71797643  .00000003  00000-0  80667-5 0  9992,2 55311  70.0001 246.2346 0002665 285.4109  74.6755 14.98343646 73541,6950.151,96.106,573.868,570.163,0.0
55311.0,STARLINK-5312,PAYLOAD,2024-05-12 01:14:40,14.98260246,0.000272,70.0008,245.3944,264.0657,96.0192,-0.00082496,-9.904e-05,0.0,0 STARLINK-5312,1 55311U 23010AU  24133.05185518 -.00009904  00000-0 -82496-3 0  9993,2 55311  70.0008 245.3944 0002720 264.0657  96.0192 14.98260246 73597,6950.409,96.111,574.164,570.383,0.0
55311.0,STARLINK-5312,PAYLOAD,2024-05-12 14:03:41,14.98320007,0.0003048,69.9998,244.0471,268.9424,91.1386,-5.1022e-05,-7.02e-06,0.0,0 STARLINK-5312,1 55311U 23010AU  24133.58589880 -.00000702  00000-0 -51022-4 0  9990,2 55311  69.9998 244.0471 0003048 268.9424  91.1386 14.98320007 73674,6950.224,96.108,574.207,569.97,0.0
55311.0,STARLINK-5312,PAYLOAD,2024-05-12 17:15:57,14.98321871,0.0002973,70.0001,243.7105,269.6845,90.3973,-3.0921e-05,-4.62e-06,0.0,0 STARLINK-5312,1 55311U 23010AU  24133.71941834 -.00000462  00000-0 -30921-4 0  9994,2 55311  70.0001 243.7105 0002973 269.6845  90.3973 14.98321871 74880,6950.218,96.108,574.149,570.017,0.0
55311.0,STARLINK-5312,PAYLOAD,2024-05-13 01:16:37,14.98330939,0.0003005,70.0,242.8687,272.8386,87.2429,-3.8709e-05,-5.55e-06,0.0,0 STARLINK-5312,1 55311U 23010AU  24134.05321498 -.00000555  00000-0 -38709-4 0  9995,2 55311  70.0000 242.8687 0003005 272.8386  87.2429 14.98330939 73747,6950.19,96.107,574.144,569.966,0.0
55311.0,STARLINK-5312,PAYLOAD,2024-05-13 12:29:33,14.98353157,0.0003139,70.0005,241.6903,276.4302,83.6499,-0.00026783,-3.289e-05,0.0,0 STARLINK-5312,1 55311U 23010AU  24134.52052601 -.00003289  00000-0 -26783-3 0  9999,2 55311  70.0005 241.6903 0003139 276.4302  83.6499 14.98353157 73818,6950.121,96.106,574.168,569.805,0.0
55311.0,STARLINK-5312,PAYLOAD,2024-05-13 17:17:57,14.98354046,0.0002837,70.0,241.1845,273.4231,86.6603,-0.00012304,-1.562e-05,0.0,0 STARLINK-5312,1 55311U 23010AU  24134.72079960 -.00001562  00000-0 -12304-3 0  9994,2 55311  70.0000 241.1845 0002837 273.4231  86.6603 14.98354046 75039,6950.119,96.105,573.955,570.012,0.0
55311.0,STARLINK-5312,PAYLOAD,2024-05-14 12:31:35,14.98296877,0.0002681,70.0004,239.1651,269.5202,90.5649,0.00098393,0.00011656,0.0,0 STARLINK-5312,1 55311U 23010AU  24135.52193320  .00011656  00000-0  98393-3 0  9995,2 55311  70.0004 239.1651 0002681 269.5202  90.5649 14.98296877 73967,6950.295,96.109,574.024,570.297,0.0
55311.0,STARLINK-5312,PAYLOAD,2024-05-14 23:44:30,14.98363201,0.0002791,70.001,237.9872,272.0196,88.0644,-0.00010581,-1.356e-05,0.0,0 STARLINK-5312,1 55311U 23010AU  24135.98923672 -.00001356  00000-0 -10581-3 0  9997,2 55311  70.0010 237.9872 0002791 272.0196  88.0644 14.98363201 74030,6950.09,96.105,573.895,570.015,0.0
55311.0,STARLINK-5312,PAYLOAD,2024-05-15 12:33:35,14.98338519,0.0003117,69.9995,236.6393,271.629,88.4512,-0.00013372,-1.689e-05,0.0,0 STARLINK-5312,1 55311U 23010AU  24136.52333035 -.00001689  00000-0 -13372-3 0  9996,2 55311  69.9995 236.6393 0003117 271.6290  88.4512 14.98338519 74117,6950.167,96.106,574.198,569.865,0.0
55311.0,STARLINK-5312,PAYLOAD,2024-05-15 14:09:43,14.98340141,0.0002804,70.0003,236.4726,260.7245,99.3597,-0.00010876,-1.391e-05,0.0,0 STARLINK-5312,1 55311U 23010AU  24136.59008782 -.00001391  00000-0 -10876-3 0  9997,2 55311  70.0003 236.4726 0002804 260.7245  99.3597 14.98340141 75310,6950.162,96.106,573.975,570.078,0.0
55311.0,STARLINK-5312,PAYLOAD,2024-05-15 15:45:51,14.98339181,0.0002545,70.0013,236.3058,239.2726,120.8183,-9.3333e-05,-1.207e-05,0.0,0 STARLINK-5312,1 55311U 23010AU  24136.65684749 -.00001207  00000-0 -93333-4 0  9993,2 55311  70.0013 236.3058 0002545 239.2726 120.8183 14.98339181 75329,6950.164,96.106,573.798,570.261,0.0
55311.0,STARLINK-5312,PAYLOAD,2024-05-15 23:46:31,14.98344501,0.0002923,70.0004,235.4606,269.4579,90.6245,-8.3157e-05,-1.085e-05,0.0,0 STARLINK-5312,1 55311U 23010AU  24136.99064085 -.00001085  00000-0 -83157-4 0  9992,2 55311  70.0004 235.4606 0002923 269.4579  90.6245 14.98344501 74187,6950.148,96.106,574.045,569.982,0.0
55311.0,STARLINK-5312,PAYLOAD,2024-05-16 12:35:34,14.98350791,0.0003392,69.9994,234.1145,268.4764,91.6007,-4.1539e-05,-5.89e-06,0.0,0 STARLINK-5312,1 55311U 23010AU  24137.52471006 -.00000589  00000-0 -41539-4 0  9993,2 55311  69.9994 234.1145 0003392 268.4764  91.6007 14.98350791 74266,6950.129,96.106,574.351,569.636,0.0
55311.0,STARLINK-5312,PAYLOAD,2024-05-16 23:48:28,14.98376655,0.0005767,70.0,232.9365,272.5597,87.4902,0.00027955,3.249e-05,0.0,0 STARLINK-5312,1 55311U 23010AU  24137.99199353  .00003249  00000-0  27955-3 0  9995,2 55311  70.0000 232.9365 0005767 272.5597  87.4902 14.98376655 74337,6950.049,96.104,575.922,567.906,0.0
55311.0,STARLINK-5312,PAYLOAD,2024-05-17 12:37:37,14.98316103,0.0003131,69.9999,231.5907,272.7955,87.2846,-0.00014165,-1.782e-05,0.0,0 STARLINK-5312,1 55311U 23010AU  24138.52613380 -.00001782  00000-0 -14165-3 0  9997,2 55311  69.9999 231.5907 0003131 272.7955  87.2846 14.98316103 74417,6950.236,96.108,574.277,569.925,0.0
55311.0,STARLINK-5312,PAYLOAD,2024-05-17 15:49:54,14.98315503,0.0003039,70.0,231.254,272.7043,87.3768,-0.00013757,-1.733e-05,0.0,0 STARLINK-5312,1 55311U 23010AU  24138.65965515 -.00001733  00000-0 -13757-3 0  9993,2 55311  70.0000 231.2540 0003039 272.7043  87.3768 14.98315503 75629,6950.238,96.108,574.215,569.991,0.0
55311.0,STARLINK-5312,PAYLOAD,2024-05-17 23:50:33,14.98329341,0.0003239,70.001,230.4124,275.1405,84.9385,-3.934e-05,-5.62e-06,0.0,0 STARLINK-5312,1 55311U 23010AU  24138.99344434 -.00000562  00000-0 -39340-4 0  9997,2 55311  70.0010 230.4124 0003239 275.1405  84.9385 14.98329341 74486,6950.195,96.107,574.311,569.809,0.0
55311.0,STARLINK-5312,PAYLOAD,2024-05-18 12:39:36,14.98347808,0.000299,70.0005,229.0655,275.6783,84.4035,0.00015554,1.764e-05,0.0,0 STARLINK-5312,1 55311U 23010AU  24139.52750568  .00001764  00000-0  15554-3 0  9999,2 55311  70.0005 229.0655 0002990 275.6783  84.4035 14.98347808 74564,6950.138,96.106,574.081,569.925,0.0
